{"fetched_at":"2026-07-19T07:04:47.356Z","source":"https://celestrak.org/NORAD/elements/gp.php?GROUP=kuiper&FORMAT=JSON","constellation":"kuiper","records":[{"OBJECT_NAME":"KUIPER-00117","OBJECT_ID":"2025-228C","EPOCH":"2026-07-18T20:10:59.890944","CLASSIFICATION_TYPE":"U","MEAN_MOTION":14.79950466,"ECCENTRICITY":0.0000862,"INCLINATION":51.8985,"RA_OF_ASC_NODE":138.1216,"ARG_OF_PERICENTER":73.021,"MEAN_ANOMALY":287.0847,"EPHEMERIS_TYPE":0,"NORAD_CAT_ID":65949,"ELEMENT_SET_NO":999,"REV_AT_EPOCH":4268,"BSTAR":0.00022169,"MEAN_MOTION_DOT":0.0000147,"MEAN_MOTION_DDOT":0},{"OBJECT_NAME":"KUIPER-00121","OBJECT_ID":"2025-228D","EPOCH":"2026-07-18T13:01:12.525312","CLASSIFICATION_TYPE":"U","MEAN_MOTION":14.79925809,"ECCENTRICITY":0.0000731,"INCLINATION":51.9,"RA_OF_ASC_NODE":134.4559,"ARG_OF_PERICENTER":98.8536,"MEAN_ANOMALY":261.2509,"EPHEMERIS_TYPE":0,"NORAD_CAT_ID":65950,"ELEMENT_SET_NO":999,"REV_AT_EPOCH":4271,"BSTAR":0.00022527,"MEAN_MOTION_DOT":0.00001496,"MEAN_MOTION_DDOT":0},{"OBJECT_NAME":"KUIPER-00122","OBJECT_ID":"2025-228E","EPOCH":"2026-07-18T20:51:53.682048","CLASSIFICATION_TYPE":"U","MEAN_MOTION":14.79931432,"ECCENTRICITY":0.0000715,"INCLINATION":51.8985,"RA_OF_ASC_NODE":142.9826,"ARG_OF_PERICENTER":87.4434,"MEAN_ANOMALY":272.661,"EPHEMERIS_TYPE":0,"NORAD_CAT_ID":65951,"ELEMENT_SET_NO":999,"REV_AT_EPOCH":4262,"BSTAR":0.00022834,"MEAN_MOTION_DOT":0.0000152,"MEAN_MOTION_DDOT":0},{"OBJECT_NAME":"KUIPER-00123","OBJECT_ID":"2025-228F","EPOCH":"2026-07-18T20:03:15.451200","CLASSIFICATION_TYPE":"U","MEAN_MOTION":14.79942582,"ECCENTRICITY":0.0000921,"INCLINATION":51.8988,"RA_OF_ASC_NODE":143.1442,"ARG_OF_PERICENTER":66.2744,"MEAN_ANOMALY":293.8315,"EPHEMERIS_TYPE":0,"NORAD_CAT_ID":65952,"ELEMENT_SET_NO":999,"REV_AT_EPOCH":4261,"BSTAR":0.000225,"MEAN_MOTION_DOT":0.00001495,"MEAN_MOTION_DDOT":0},{"OBJECT_NAME":"KUIPER-00124","OBJECT_ID":"2025-228G","EPOCH":"2026-07-18T20:14:53.970144","CLASSIFICATION_TYPE":"U","MEAN_MOTION":14.79942344,"ECCENTRICITY":0.0000871,"INCLINATION":51.8986,"RA_OF_ASC_NODE":135.5965,"ARG_OF_PERICENTER":81.8215,"MEAN_ANOMALY":278.2846,"EPHEMERIS_TYPE":0,"NORAD_CAT_ID":65953,"ELEMENT_SET_NO":999,"REV_AT_EPOCH":4272,"BSTAR":0.00023584,"MEAN_MOTION_DOT":0.00001577,"MEAN_MOTION_DDOT":0},{"OBJECT_NAME":"KUIPER-00125","OBJECT_ID":"2025-228H","EPOCH":"2026-07-18T04:25:48.639936","CLASSIFICATION_TYPE":"U","MEAN_MOTION":14.79927969,"ECCENTRICITY":0.00008491,"INCLINATION":51.9004,"RA_OF_ASC_NODE":123.5568,"ARG_OF_PERICENTER":89.5386,"MEAN_ANOMALY":270.5673,"EPHEMERIS_TYPE":0,"NORAD_CAT_ID":65954,"ELEMENT_SET_NO":999,"REV_AT_EPOCH":4283,"BSTAR":0.0002333262,"MEAN_MOTION_DOT":0.00001558,"MEAN_MOTION_DDOT":0},{"OBJECT_NAME":"KUIPER-00126","OBJECT_ID":"2025-228J","EPOCH":"2026-07-18T20:55:45.814656","CLASSIFICATION_TYPE":"U","MEAN_MOTION":14.79941757,"ECCENTRICITY":0.0000917,"INCLINATION":51.8992,"RA_OF_ASC_NODE":140.5025,"ARG_OF_PERICENTER":82.1496,"MEAN_ANOMALY":277.957,"EPHEMERIS_TYPE":0,"NORAD_CAT_ID":65955,"ELEMENT_SET_NO":999,"REV_AT_EPOCH":4265,"BSTAR":0.00022111,"MEAN_MOTION_DOT":0.00001465,"MEAN_MOTION_DDOT":0},{"OBJECT_NAME":"KUIPER-00127","OBJECT_ID":"2025-228K","EPOCH":"2026-07-18T12:36:54.540864","CLASSIFICATION_TYPE":"U","MEAN_MOTION":14.79932551,"ECCENTRICITY":0.00009016,"INCLINATION":51.9011,"RA_OF_ASC_NODE":134.5058,"ARG_OF_PERICENTER":79.4116,"MEAN_ANOMALY":280.6948,"EPHEMERIS_TYPE":0,"NORAD_CAT_ID":65956,"ELEMENT_SET_NO":999,"REV_AT_EPOCH":4271,"BSTAR":0.000006793642,"MEAN_MOTION_DOT":-0.00000169,"MEAN_MOTION_DDOT":0},{"OBJECT_NAME":"KUIPER-00128","OBJECT_ID":"2025-228L","EPOCH":"2026-07-18T20:18:48.214368","CLASSIFICATION_TYPE":"U","MEAN_MOTION":14.79943085,"ECCENTRICITY":0.0000898,"INCLINATION":51.9015,"RA_OF_ASC_NODE":133.1525,"ARG_OF_PERICENTER":82.8159,"MEAN_ANOMALY":277.2905,"EPHEMERIS_TYPE":0,"NORAD_CAT_ID":65957,"ELEMENT_SET_NO":999,"REV_AT_EPOCH":4275,"BSTAR":0.00022027,"MEAN_MOTION_DOT":0.00001459,"MEAN_MOTION_DDOT":0},{"OBJECT_NAME":"KUIPER-00129","OBJECT_ID":"2025-228M","EPOCH":"2026-07-18T19:37:57.227808","CLASSIFICATION_TYPE":"U","MEAN_MOTION":14.79940215,"ECCENTRICITY":0.0000912,"INCLINATION":51.9007,"RA_OF_ASC_NODE":128.2591,"ARG_OF_PERICENTER":85.1134,"MEAN_ANOMALY":274.9933,"EPHEMERIS_TYPE":0,"NORAD_CAT_ID":65958,"ELEMENT_SET_NO":999,"REV_AT_EPOCH":4282,"BSTAR":0.00021802,"MEAN_MOTION_DOT":0.00001441,"MEAN_MOTION_DDOT":0},{"OBJECT_NAME":"KUIPER-00130","OBJECT_ID":"2025-228N","EPOCH":"2026-07-18T20:22:41.834784","CLASSIFICATION_TYPE":"U","MEAN_MOTION":14.79928736,"ECCENTRICITY":0.000079,"INCLINATION":51.9028,"RA_OF_ASC_NODE":130.6559,"ARG_OF_PERICENTER":91.1221,"MEAN_ANOMALY":268.9832,"EPHEMERIS_TYPE":0,"NORAD_CAT_ID":65959,"ELEMENT_SET_NO":999,"REV_AT_EPOCH":3308,"BSTAR":0.0002379,"MEAN_MOTION_DOT":0.00001593,"MEAN_MOTION_DDOT":0},{"OBJECT_NAME":"KUIPER-00134","OBJECT_ID":"2025-228P","EPOCH":"2026-07-18T19:59:03.431040","CLASSIFICATION_TYPE":"U","MEAN_MOTION":15.41893356,"ECCENTRICITY":0.0006546,"INCLINATION":51.8718,"RA_OF_ASC_NODE":43.3245,"ARG_OF_PERICENTER":66.78,"MEAN_ANOMALY":293.3877,"EPHEMERIS_TYPE":0,"NORAD_CAT_ID":65960,"ELEMENT_SET_NO":999,"REV_AT_EPOCH":4400,"BSTAR":0.00043715,"MEAN_MOTION_DOT":0.00018516,"MEAN_MOTION_DDOT":0},{"OBJECT_NAME":"KUIPER-00135","OBJECT_ID":"2025-228Q","EPOCH":"2026-07-18T19:34:05.973888","CLASSIFICATION_TYPE":"U","MEAN_MOTION":14.79932816,"ECCENTRICITY":0.0000867,"INCLINATION":51.9019,"RA_OF_ASC_NODE":130.8593,"ARG_OF_PERICENTER":83.9224,"MEAN_ANOMALY":276.1837,"EPHEMERIS_TYPE":0,"NORAD_CAT_ID":65961,"ELEMENT_SET_NO":999,"REV_AT_EPOCH":4278,"BSTAR":0.00022205,"MEAN_MOTION_DOT":0.00001472,"MEAN_MOTION_DDOT":0},{"OBJECT_NAME":"KUIPER-00136","OBJECT_ID":"2025-228R","EPOCH":"2026-07-18T18:49:20.764704","CLASSIFICATION_TYPE":"U","MEAN_MOTION":14.79931619,"ECCENTRICITY":0.0000964,"INCLINATION":51.9005,"RA_OF_ASC_NODE":128.4511,"ARG_OF_PERICENTER":79.9831,"MEAN_ANOMALY":280.124,"EPHEMERIS_TYPE":0,"NORAD_CAT_ID":65962,"ELEMENT_SET_NO":999,"REV_AT_EPOCH":4281,"BSTAR":0.00023929,"MEAN_MOTION_DOT":0.00001603,"MEAN_MOTION_DDOT":0},{"OBJECT_NAME":"KUIPER-00137","OBJECT_ID":"2025-228S","EPOCH":"2026-07-18T18:53:05.801280","CLASSIFICATION_TYPE":"U","MEAN_MOTION":14.79900242,"ECCENTRICITY":0.0000998,"INCLINATION":51.9038,"RA_OF_ASC_NODE":125.9346,"ARG_OF_PERICENTER":82.9518,"MEAN_ANOMALY":277.1558,"EPHEMERIS_TYPE":0,"NORAD_CAT_ID":65963,"ELEMENT_SET_NO":999,"REV_AT_EPOCH":4285,"BSTAR":0.00022356,"MEAN_MOTION_DOT":0.00001482,"MEAN_MOTION_DDOT":0},{"OBJECT_NAME":"KUIPER-00138","OBJECT_ID":"2025-228T","EPOCH":"2026-07-18T14:53:56.688864","CLASSIFICATION_TYPE":"U","MEAN_MOTION":14.79941919,"ECCENTRICITY":0.0000816,"INCLINATION":51.8987,"RA_OF_ASC_NODE":124.0949,"ARG_OF_PERICENTER":86.5215,"MEAN_ANOMALY":273.5841,"EPHEMERIS_TYPE":0,"NORAD_CAT_ID":65964,"ELEMENT_SET_NO":999,"REV_AT_EPOCH":4286,"BSTAR":0.00023367,"MEAN_MOTION_DOT":0.00001561,"MEAN_MOTION_DDOT":0}]}
