KUIPER-00117            
1 65949U 25228C   26199.84097096  .00001470  00000+0  22169-3 0  9996
2 65949  51.8985 138.1216 0000862  73.0210 287.0847 14.79950466 42689
KUIPER-00121            
1 65950U 25228D   26199.54250608  .00001496  00000+0  22527-3 0  9991
2 65950  51.9000 134.4559 0000731  98.8536 261.2509 14.79925809 42716
KUIPER-00122            
1 65951U 25228E   26199.86937132  .00001520  00000+0  22834-3 0  9990
2 65951  51.8985 142.9826 0000715  87.4434 272.6610 14.79931432 42620
KUIPER-00123            
1 65952U 25228F   26199.83559550  .00001495  00000+0  22500-3 0  9993
2 65952  51.8988 143.1442 0000921  66.2744 293.8315 14.79942582 42613
KUIPER-00124            
1 65953U 25228G   26199.84368021  .00001577  00000+0  23584-3 0  9990
2 65953  51.8986 135.5965 0000871  81.8215 278.2846 14.79942344 42721
KUIPER-00125            
1 65954U 25228H   26199.18459074  .00001558  00000+0  23333-3 0  9998
2 65954  51.9004 123.5568 0000849  89.5386 270.5673 14.79927969 42830
KUIPER-00126            
1 65955U 25228J   26199.87205804  .00001465  00000+0  22111-3 0  9995
2 65955  51.8992 140.5025 0000917  82.1496 277.9570 14.79941757 42658
KUIPER-00127            
1 65956U 25228K   26199.52563126 -.00000169  00000+0  67936-5 0  9999
2 65956  51.9011 134.5058 0000901  79.4116 280.6948 14.79932551 42711
KUIPER-00128            
1 65957U 25228L   26199.84639137  .00001459  00000+0  22027-3 0  9993
2 65957  51.9015 133.1525 0000898  82.8159 277.2905 14.79943085 42753
KUIPER-00129            
1 65958U 25228M   26199.81802347  .00001441  00000+0  21802-3 0  9997
2 65958  51.9007 128.2591 0000912  85.1134 274.9933 14.79940215 42824
KUIPER-00130            
1 65959U 25228N   26199.84909531  .00001593  00000+0  23790-3 0  9990
2 65959  51.9028 130.6559 0000790  91.1221 268.9832 14.79928736 33080
KUIPER-00134            
1 65960U 25228P   26199.83267860  .00018516  00000+0  43715-3 0  9995
2 65960  51.8718  43.3245 0006546  66.7800 293.3877 15.41893356 44009
KUIPER-00135            
1 65961U 25228Q   26199.81534692  .00001472  00000+0  22205-3 0  9998
2 65961  51.9019 130.8593 0000867  83.9224 276.1837 14.79932816 42787
KUIPER-00136            
1 65962U 25228R   26199.78426811  .00001603  00000+0  23929-3 0  9998
2 65962  51.9005 128.4511 0000964  79.9831 280.1240 14.79931619 42810
KUIPER-00137            
1 65963U 25228S   26199.78687270  .00001482  00000+0  22356-3 0  9995
2 65963  51.9038 125.9346 0000998  82.9518 277.1558 14.79900242 42858
KUIPER-00138            
1 65964U 25228T   26199.62079501  .00001561  00000+0  23367-3 0  9992
2 65964  51.8987 124.0949 0000816  86.5215 273.5841 14.79941919 42865
